ONEWEB-0656             
1 55817U 23029X   25172.90480042  .00000083  00000+0  17206-3 0  9995
2 55817  87.9265 346.1775 0001478  80.0047 280.1253 13.20771842113592
ONEWEB-0657             
1 55818U 23029Y   25172.86739590  .00000041  00000+0  69395-4 0  9997
2 55818  87.9219  16.6202 0002215  66.3280 293.8085 13.19724638111380
ONEWEB-0658             
1 55819U 23029Z   25173.54500486 -.00000002  00000+0 -37245-4 0  9992
2 55819  87.9215  16.4190 0002274  94.3292 265.8101 13.19724093112160
ONEWEB-0660             
1 55820U 23029AA  25173.47011813 -.00000098  00000+0 -29961-3 0  9997
2 55820  87.9033   1.2493 0001857 102.5794 257.5544 13.14503231112852
ONEWEB-0661             
1 55821U 23029AB  25172.81995164  .00000228  00000+0  58142-3 0  9991
2 55821  87.9036   1.4495 0001726 102.5064 257.6259 13.14502438112048
ONEWEB-0662             
1 55822U 23029AC  25172.24591020 -.00000048  00000+0 -16492-3 0  9996
2 55822  87.9035   1.5704 0002025  99.4872 260.6487 13.14498396112017
ONEWEB-0663             
1 55823U 23029AD  25172.88562501  .00000051  00000+0  92493-4 0  9997
2 55823  87.9266 346.2368 0002066 104.8856 255.2506 13.20839124114263
ONEWEB-0664             
1 55824U 23029AE  25172.74063864 -.00000198  00000+0 -51922-3 0  9996
2 55824  87.9266 346.2868 0001435  98.6905 261.4391 13.20771450113563
